GAOFEN 4                
1 41194U 15083A   17001.60247889 -.00000328  00000-0  00000+0 0  9992
2 41194   0.0330 245.7895 0002194  25.5487 152.7208  1.00270048  3868
BELINTERSAT-1           
1 41238U 16001A   17001.18365039  .00000113  00000-0  10000-3 0  9999
2 41238   0.0082  11.4237 0001136 225.8278 341.3647  1.00273282  3649
IRNSS-1E                
1 41241U 16003A   16360.75353361 -.00000276  00000-0  00000+0 0  9996
2 41241  28.5140 117.7229 0019992 178.5474 181.3555  1.00267772  3507
INTELSAT 29E (IS-29E)   
1 41308U 16004A   16366.85913529 -.00000275  00000-0  00000-0 0  9996
2 41308   0.0358 276.2188 0001570 355.4343  88.3302  1.00274208  3548
EUTELSAT 9B             
1 41310U 16005A   17001.69286879  .00000068  00000-0  00000+0 0  9998
2 41310   0.0609 120.5091 0004762 177.1147  62.3282  1.00272779  3484
EUTELSAT 65 WEST A      
1 41382U 16014A   16366.90121519 -.00000269  00000-0  00000+0 0  9997
2 41382   0.0438   5.4279 0001579 274.6906  79.8649  1.00274052  3016
IRNSS-1F                
1 41384U 16015A   17001.37677967  .00000167  00000-0  00000+0 0  9997
2 41384   4.5025 268.9230 0016789 178.3849 181.9414  1.00271308  3068
BEIDOU IGSO 6           
1 41434U 16021A   17001.91154424 -.00000137  00000-0  10000-3 0  9991
2 41434  55.3184  74.2367 0028790 181.2171 269.7006  1.00265879  2864
IRNSS-1G                
1 41469U 16027A   17002.10806990 -.00000326  00000-0  00000+0 0  9994
2 41469   4.5764 270.1552 0002588 332.0341  28.2533  1.00270382  2573
JCSAT 2B                
1 41471U 16028A   16366.29402399 -.00000158  00000-0  00000+0 0  9998
2 41471   0.0183  70.4447 0002596 256.4448  33.0959  1.00272273  2445
THAICOM 8               
1 41552U 16031A   17001.50030541 -.00000115  00000-0  00000+0 0  9992
2 41552   0.0700  50.3775 0003645 269.8696  39.7269  1.00270541  2151
INTELSAT 31 (IS-31)     
1 41581U 16035A   17001.98120688 -.00000145  00000-0  00000+0 0  9995
2 41581   0.0356 243.3088 0002371 315.8373 160.8455  1.00270982  2084
BEIDOU G7               
1 41586U 16037A   17001.18552682 -.00000239  00000-0  00000+0 0  9991
2 41586   1.5121 311.6174 0003866 302.7692  58.0253  1.00272076  2168
BRISAT                  
1 41591U 16039A   17002.29834995 -.00000191  00000-0  00000+0 0  9999
2 41591   0.0190  11.8845 0002161 267.6847  80.4063  1.00270765  2022
ECHOSTAR 18             
1 41592U 16039B   16366.89050505 -.00000275  00000-0  00000+0 0  9998
2 41592   0.0137  61.1309 0001702 208.3150  90.5359  1.00271682  1990
TIANTONG-1 1            
1 41725U 16048A   17001.99899787 -.00000309  00000-0  00000+0 0  9995
2 41725   4.8150 325.1646 0006108 348.2816 249.4519  1.00271020  1641
JCSAT-16                
1 41729U 16050A   17001.26915918 -.00000086  00000-0  00000+0 0  9999
2 41729   0.0233 335.9433 0001633  83.9308 300.1420  1.00270473  1440
INTELSAT 36 (IS-36)     
1 41747U 16053A   16365.53362544 -.00000016  00000-0  00000+0 0  9998
2 41747   0.0134  30.2164 0002565 315.1574  14.6210  1.00272054  1324
INSAT-3DR               
1 41752U 16054A   17001.51250995 -.00000070  00000-0  00000+0 0  9997
2 41752   0.0933 274.5151 0015403 358.3127  86.9961  1.00270948  1183
GSAT-18                 
1 41793U 16060A   17001.51306539 -.00000070  00000-0  00000+0 0  9995
2 41793   0.0584  88.8469 0003518   1.4907 269.7037  1.00271271   919
SKY MUSTER 2            
1 41794U 16060B   17001.31693532 -.00000239  00000-0  00000+0 0  9993
2 41794   0.0181   2.6579 0001701 276.7561  80.5669  1.00269638   941
SHIJIAN-17 (SJ-17)      
1 41838U 16065A   17001.85703017 -.00000077  00000-0  00000+0 0  9996
2 41838   0.8843  86.8442 0006873 338.5486 147.9146  1.00272494   609
